NORAD_CAT_ID,OBJECT_NAME,OBJECT_TYPE,EPOCH,MEAN_MOTION,ECCENTRICITY,INCLINATION,RA_OF_ASC_NODE,ARG_OF_PERICENTER,MEAN_ANOMALY,BSTAR,MEAN_MOTION_DOT,MEAN_MOTION_DDOT,TLE_LINE0,TLE_LINE1,TLE_LINE2,SEMIMAJOR_AXIS,PERIOD,APOGEE,PERIGEE,DECAYED
55930.0,STARLINK-5896,PAYLOAD,2023-10-30 04:29:19,14.9831866,0.0003031,69.9987,296.6806,269.8677,90.2135,7.136e-05,7.58e-06,0.0,0 STARLINK-5896,1 55930U 23037S   23303.18703508  .00000758  00000-0  71360-4 0  9991,2 55930  69.9987 296.6806 0003031 269.8677  90.2135 14.98318660 35274,6950.228,96.108,574.2,569.986,0.0
55930.0,STARLINK-5896,PAYLOAD,2023-10-30 17:18:24,14.98311758,0.0002521,69.9989,295.3341,283.99,76.0979,0.00026808,3.106e-05,0.0,0 STARLINK-5896,1 55930U 23037S   23303.72111929  .00003106  00000-0  26808-3 0  9997,2 55930  69.9989 295.3341 0002521 283.9900  76.0979 14.98311758 35016,6950.249,96.108,573.866,570.362,0.0
55930.0,STARLINK-5896,PAYLOAD,2023-10-31 04:31:20,14.98328673,0.0002882,69.9985,294.1558,269.6166,90.4663,-3.3809e-06,-1.33e-06,0.0,0 STARLINK-5896,1 55930U 23037S   23304.18843338 -.00000133  00000-0 -33809-5 0  9994,2 55930  69.9985 294.1558 0002882 269.6166  90.4663 14.98328673 35423,6950.197,96.107,574.065,570.059,0.0
55930.0,STARLINK-5896,PAYLOAD,2023-10-31 09:19:44,14.98332705,0.0002839,69.9987,293.6506,267.0766,93.0068,2.279e-05,1.79e-06,0.0,0 STARLINK-5896,1 55930U 23037S   23304.38870994  .00000179  00000-0  22790-4 0  9998,2 55930  69.9987 293.6506 0002839 267.0766  93.0068 14.98332705 35117,6950.185,96.107,574.023,570.076,0.0
55930.0,STARLINK-5896,PAYLOAD,2023-10-31 17:20:25,14.98314501,0.000274,69.9989,292.8089,272.7447,87.3398,0.00029267,3.399e-05,0.0,0 STARLINK-5896,1 55930U 23037S   23304.72251630  .00003399  00000-0  29267-3 0  9998,2 55930  69.9989 292.8089 0002740 272.7447  87.3398 14.98314501 35167,6950.241,96.108,574.01,570.201,0.0
55930.0,STARLINK-5896,PAYLOAD,2023-11-01 04:33:21,14.98326836,0.0002752,69.9991,291.6304,267.5317,92.5527,5.0505e-05,5.1e-06,0.0,0 STARLINK-5896,1 55930U 23037S   23305.18983316  .00000510  00000-0  50505-4 0  9994,2 55930  69.9991 291.6304 0002752 267.5317  92.5527 14.98326836 35579,6950.203,96.107,573.98,570.155,0.0
55930.0,STARLINK-5896,PAYLOAD,2023-11-01 09:21:45,14.98330814,0.0002743,69.9987,291.1251,266.5896,93.4949,8.8056e-05,9.58e-06,0.0,0 STARLINK-5896,1 55930U 23037S   23305.39010990  .00000958  00000-0  88056-4 0  9994,2 55930  69.9987 291.1251 0002743 266.5896  93.4949 14.98330814 35266,6950.19,96.107,573.962,570.149,0.0
55930.0,STARLINK-5896,PAYLOAD,2023-11-01 22:10:50,14.98340006,0.0002401,69.9991,289.7792,272.6836,87.4048,-9.0638e-05,-1.174e-05,0.0,0 STARLINK-5896,1 55930U 23037S   23305.92418983 -.00001174  00000-0 -90638-4 0  9999,2 55930  69.9991 289.7792 0002401 272.6836  87.4048 14.98340006 35343,6950.162,96.106,573.696,570.358,0.0
55930.0,STARLINK-5896,PAYLOAD,2023-11-02 04:35:22,14.98341326,0.0002294,69.9991,289.1061,272.2499,87.8397,-8.5994e-05,-1.119e-05,0.0,0 STARLINK-5896,1 55930U 23037S   23306.19122710 -.00001119  00000-0 -85994-4 0  9997,2 55930  69.9991 289.1061 0002294 272.2499  87.8397 14.98341326 35726,6950.158,96.106,573.617,570.429,0.0
55930.0,STARLINK-5896,PAYLOAD,2023-11-02 09:23:45,14.98362584,0.00023,69.9992,288.601,266.2815,93.8081,-0.00038706,-4.712e-05,0.0,0 STARLINK-5896,1 55930U 23037S   23306.39149855 -.00004712  00000-0 -38706-3 0  9998,2 55930  69.9992 288.6010 0002300 266.2815  93.8081 14.98362584 35757,6950.092,96.105,573.556,570.359,0.0
55930.0,STARLINK-5896,PAYLOAD,2023-11-02 15:48:18,14.98359238,0.0002512,70.0002,287.9269,273.5486,86.5386,-0.00046377,-5.626e-05,0.0,0 STARLINK-5896,1 55930U 23037S   23306.65854170 -.00005626  00000-0 -46377-3 0  9998,2 55930  70.0002 287.9269 0002512 273.5486  86.5386 14.98359238 35793,6950.102,96.105,573.713,570.222,0.0
55930.0,STARLINK-5896,PAYLOAD,2023-11-02 22:12:50,14.98334728,0.000246,70.0006,287.2543,270.3499,89.7378,-3.6926e-05,-5.34e-06,0.0,0 STARLINK-5896,1 55930U 23037S   23306.92558795 -.00000534  00000-0 -36926-4 0  9995,2 55930  70.0006 287.2543 0002460 270.3499  89.7378 14.98334728 35496,6950.178,96.107,573.753,570.334,0.0
55930.0,STARLINK-5896,PAYLOAD,2023-11-03 04:37:23,14.98330134,0.0002601,69.9992,286.5811,270.1263,89.9598,-5.0916e-05,-7e-06,0.0,0 STARLINK-5896,1 55930U 23037S   23307.19263028 -.00000700  00000-0 -50916-4 0  9997,2 55930  69.9992 286.5811 0002601 270.1263  89.9598 14.98330134 35876,6950.192,96.107,573.865,570.25,0.0
55930.0,STARLINK-5896,PAYLOAD,2023-11-03 07:49:39,14.98329396,0.0002448,69.9998,286.2444,264.2574,95.8306,-4.4201e-06,-1.46e-06,0.0,0 STARLINK-5896,1 55930U 23037S   23307.32614950 -.00000146  00000-0 -44201-5 0  9991,2 55930  69.9998 286.2444 0002448 264.2574  95.8306 14.98329396 35555,6950.195,96.107,573.761,570.358,0.0
55930.0,STARLINK-5896,PAYLOAD,2023-11-03 15:50:19,14.98360473,0.0002589,69.9999,285.4022,277.9982,82.0883,-0.00059892,-7.237e-05,0.0,0 STARLINK-5896,1 55930U 23037S   23307.65994327 -.00007237  00000-0 -59892-3 0  9994,2 55930  69.9999 285.4022 0002589 277.9982  82.0883 14.98360473 35941,6950.099,96.105,573.763,570.164,0.0
55930.0,STARLINK-5896,PAYLOAD,2023-11-03 22:14:51,14.9833331,0.0002537,70.0001,284.7287,270.4212,89.6656,-0.00010628,-1.361e-05,0.0,0 STARLINK-5896,1 55930U 23037S   23307.92699001 -.00001361  00000-0 -10628-3 0  9991,2 55930  70.0001 284.7287 0002537 270.4212  89.6656 14.98333310 35648,6950.183,96.107,573.811,570.284,0.0
55930.0,STARLINK-5896,PAYLOAD,2023-11-04 04:39:21,14.98365197,0.000249,70.0,284.0554,262.4286,97.6591,0.0001444,1.632e-05,0.0,0 STARLINK-5896,1 55930U 23037S   23308.19400409  .00001632  00000-0  14440-3 0  9998,2 55930  70.0000 284.0554 0002490 262.4286  97.6591 14.98365197 36025,6950.084,96.105,573.68,570.218,0.0
55930.0,STARLINK-5896,PAYLOAD,2023-11-04 09:27:48,14.98331415,0.0002639,69.9999,283.5505,265.1842,94.9016,-8.8443e-05,-1.148e-05,0.0,0 STARLINK-5896,1 55930U 23037S   23308.39430951 -.00001148  00000-0 -88443-4 0  9994,2 55930  69.9999 283.5505 0002639 265.1842  94.9016 14.98331415 36053,6950.189,96.107,573.888,570.219,0.0
55930.0,STARLINK-5896,PAYLOAD,2023-11-04 19:04:36,14.983343,0.0002365,70.0009,282.5411,273.1059,86.9829,4.5021e-05,4.44e-06,0.0,0 STARLINK-5896,1 55930U 23037S   23308.79486609  .00000444  00000-0  45021-4 0  9990,2 55930  70.0009 282.5411 0002365 273.1059  86.9829 14.98334300 35775,6950.18,96.107,573.688,570.401,0.0
55930.0,STARLINK-5896,PAYLOAD,2023-11-05 04:41:24,14.98337519,0.0002799,69.999,281.5303,269.9349,90.1489,9.8628e-05,1.084e-05,0.0,0 STARLINK-5896,1 55930U 23037S   23309.19542123  .00001084  00000-0  98628-4 0  9991,2 55930  69.9990 281.5303 0002799 269.9349  90.1489 14.98337519 36175,6950.17,96.107,573.98,570.089,0.0
55930.0,STARLINK-5896,PAYLOAD,2023-11-05 07:53:40,14.9833406,0.0002899,70.0001,281.1936,269.2545,90.8282,7.46e-06,-4e-08,0.0,0 STARLINK-5896,1 55930U 23037S   23309.32894481 -.00000004  00000-0  74600-5 0  9990,2 55930  70.0001 281.1936 0002899 269.2545  90.8282 14.98334060 35851,6950.18,96.107,574.06,570.03,0.0
55930.0,STARLINK-5896,PAYLOAD,2023-11-05 15:54:21,14.98331551,0.0002658,69.9999,280.3512,272.7813,87.3042,5.2152e-05,5.29e-06,0.0,0 STARLINK-5896,1 55930U 23037S   23309.66274555  .00000529  00000-0  52152-4 0  9999,2 55930  69.9999 280.3512 0002658 272.7813  87.3042 14.98331551 36246,6950.188,96.107,573.9,570.206,0.0
55930.0,STARLINK-5896,PAYLOAD,2023-11-06 04:43:24,14.9835105,0.0002641,69.9999,279.0054,270.8732,89.2124,0.00023813,2.751e-05,0.0,0 STARLINK-5896,1 55930U 23037S   23310.19680654  .00002751  00000-0  23813-3 0  9990,2 55930  69.9999 279.0054 0002641 270.8732  89.2124 14.98351050 36320,6950.128,96.106,573.828,570.157,0.0
55930.0,STARLINK-5896,PAYLOAD,2023-11-06 07:55:40,14.98350147,0.000281,69.9991,278.6689,270.6987,89.385,0.00025206,2.917e-05,0.0,0 STARLINK-5896,1 55930U 23037S   23310.33032514  .00002917  00000-0  25206-3 0  9994,2 55930  69.9991 278.6689 0002810 270.6987  89.3850 14.98350147 36007,6950.131,96.106,573.949,570.043,0.0
55930.0,STARLINK-5896,PAYLOAD,2023-11-06 15:56:22,14.98318703,0.0002841,70.0004,277.8272,267.5301,92.5533,-9.803e-05,-1.262e-05,0.0,0 STARLINK-5896,1 55930U 23037S   23310.66415333 -.00001262  00000-0 -98030-4 0  9994,2 55930  70.0004 277.8272 0002841 267.5301  92.5533 14.98318703 36391,6950.228,96.108,574.067,570.118,0.0
55930.0,STARLINK-5896,PAYLOAD,2023-11-06 22:20:56,14.98301843,0.0002763,69.9993,277.1541,265.5867,94.4976,-0.00030494,-3.727e-05,0.0,0 STARLINK-5896,1 55930U 23037S   23310.93121249 -.00003727  00000-0 -30494-3 0  9991,2 55930  69.9993 277.1541 0002763 265.5867  94.4976 14.98301843 36091,6950.28,96.109,574.065,570.225,0.0
55930.0,STARLINK-5896,PAYLOAD,2023-11-07 04:45:28,14.98307167,0.0002332,69.9995,276.4807,255.0363,105.0538,-0.0002239,-2.762e-05,0.0,0 STARLINK-5896,1 55930U 23037S   23311.19825093 -.00002762  00000-0 -22390-3 0  9992,2 55930  69.9995 276.4807 0002332 255.0363 105.0538 14.98307167 36477,6950.264,96.108,573.749,570.508,0.0
55930.0,STARLINK-5896,PAYLOAD,2023-11-07 07:57:45,14.98308883,0.0002728,69.9994,276.1445,265.0465,95.0382,-0.00027704,-3.395e-05,0.0,0 STARLINK-5896,1 55930U 23037S   23311.33177297 -.00003395  00000-0 -27704-3 0  9991,2 55930  69.9994 276.1445 0002728 265.0465  95.0382 14.98308883 36150,6950.258,96.108,574.019,570.227,0.0
55930.0,STARLINK-5896,PAYLOAD,2023-11-08 03:11:21,14.98323723,0.0002475,69.9999,274.1246,269.6214,90.4661,-0.00011506,-1.465e-05,0.0,0 STARLINK-5896,1 55930U 23037S   23312.13288566 -.00001465  00000-0 -11506-3 0  9991,2 55930  69.9999 274.1246 0002475 269.6214  90.4661 14.98323723 36613,6950.212,96.107,573.797,570.357,0.0
55930.0,STARLINK-5896,PAYLOAD,2023-11-08 07:59:44,14.98336482,0.0002764,69.9993,273.6197,265.1193,94.9651,-6.8224e-05,-9.07e-06,0.0,0 STARLINK-5896,1 55930U 23037S   23312.33315594 -.00000907  00000-0 -68224-4 0  9995,2 55930  69.9993 273.6197 0002764 265.1193  94.9651 14.98336482 36641,6950.173,96.107,573.959,570.117,0.0
